KUIPER-00035            
1 63748U 25088AA  25303.30730192  .00003629  00000+0  50520-3 0  9993
2 63748  51.9022 330.6601 0005263   1.7558 358.3422 14.79906529 28201
KUIPER-00037            
1 63749U 25088AB  25303.30873557  .00002788  00000+0  39410-3 0  9997
2 63749  51.9009 329.6060 0007742 313.0309  47.0004 14.79991045 29005
KUIPER-00038            
1 63750U 25088AC  25303.83336806  .00022157  00000+0  29123-2 0  9999
2 63750  51.9020 312.3166 0006662   8.7267 170.5011 14.80116445  5635
KUIPER-00039            
1 64500U 25134A   25302.82492340  .00017170  00000+0  22652-2 0  9998
2 64500  51.8998  91.7592 0012062 216.7564 143.2572 14.80081049 20698
KUIPER-00040            
1 64501U 25134B   25303.82552595  .00005395  00000+0  73512-3 0  9997
2 64501  51.8990  98.4981 0017783 198.0963 161.9368 14.79910415 20682
KUIPER-00041            
1 64502U 25134C   25303.82458522  .00005736  00000+0  78116-3 0  9997
2 64502  51.8987  99.8612 0014325 191.0188 169.0463 14.79862176 20669
KUIPER-00042            
1 64503U 25134D   25303.76057860  .00002055  00000+0  29857-3 0  9990
2 64503  51.8973  96.1401 0012190 194.6690 165.3920 14.79926475 20712
KUIPER-00043            
1 64504U 25134E   25303.83623134 -.00005568  00000+0 -70156-3 0  9994
2 64504  51.9024  88.2441 0003847 193.0632 167.0231 14.79947111 20832
